INTELSAT 9 (IS-9)       
1 26451U 00043A   25177.71830525 -.00000091  00000+0  00000+0 0  9997
2 26451   9.6029  52.4240 0003351 103.6168  28.0863  0.99428691 40571
INTELSAT 10 (IS-10)     
1 26766U 01019A   25177.79419611 -.00000019  00000+0  00000+0 0  9997
2 26766   8.2227  62.8808 0003009  14.8150 189.4520  1.00272403 42052
INTELSAT 902 (IS-902)   
1 26900U 01039A   25177.56032123 -.00000292  00000+0  00000+0 0  9996
2 26900   5.2170  76.1502 0004254  21.1113 329.3061  1.00271167 87126
INTELSAT 904 (IS-904)   
1 27380U 02007A   25177.02752995 -.00000207  00000+0  00000+0 0  9998
2 27380   6.0275  73.4669 0002509  31.0993 152.2992  1.00308223 48199
DIRECTV 5 (TEMPO 1)     
1 27426U 02023A   25178.40505277 -.00000065  00000+0  00000+0 0  9991
2 27426   3.9697  79.7825 0003336  33.0292 198.6435  1.00272215 84568
INTELSAT 905 (IS-905)   
1 27438U 02027A   25178.47961449  .00000085  00000+0  00000+0 0  9993
2 27438   5.8600  74.0870 0002364  14.1794 223.0063  1.00269576 84400
GALAXY 3C (G-3C)        
1 27445U 02030A   25178.55089417 -.00000160  00000+0  00000+0 0  9995
2 27445   2.8201  82.4619 0003003  47.9416 248.9674  1.00271374 42937
INTELSAT 906 (IS-906)   
1 27513U 02041A   25178.22549244  .00000004  00000+0  00000+0 0  9992
2 27513   4.8988  77.3256 0004047   9.5518 334.0228  1.00270949 83465
GALAXY 23 (G-23)        
1 27854U 03034A   25178.25379677  .00000093  00000+0  00000+0 0  9995
2 27854   2.2786  84.1047 0000600 161.7525 328.4042  0.99675730 80186
GALAXY 13 (HORIZONS-1)  
1 27954U 03044A   25178.60044727  .00000126  00000+0  00000+0 0  9998
2 27954   0.5010  89.4583 0002067 357.2217 255.4258  1.00271330 43010
INTELSAT 10-02          
1 28358U 04022A   25178.56939968 -.00000017  00000+0  00000+0 0  9999
2 28358   0.0162 337.5954 0000493 108.3891  33.9447  1.00269555 77006
XM-3 (RHYTHM)           
1 28626U 05008A   25178.55254488 -.00000205  00000+0  00000+0 0  9997
2 28626   0.0435 151.3025 0000227  54.2626 182.9057  1.00269588 39060
DIRECTV 8               
1 28659U 05019A   25178.58933653 -.00000005  00000+0  00000+0 0  9994
2 28659   0.0197  66.4062 0002748  31.0766 271.5572  1.00271808 73519
GALAXY 28 (G-28)        
1 28702U 05022A   25178.55211049 -.00000194  00000+0  00000+0 0  9991
2 28702   2.3842  83.4089 0002572  31.6499 270.9034  1.00270526 48426
GALAXY 16 (G-16)        
1 29236U 06023A   25178.47864051 -.00000132  00000+0  00000+0 0  9996
2 29236   0.0457 205.9373 0002446 247.9893 255.1943  1.00271729 69415
DIRECTV 9S              
1 29494U 06043A   25178.54959095 -.00000120  00000+0  00000+0 0  9992
2 29494   1.5050  85.3239 0002773  14.3050 272.9167  1.00270961 47824
GALAXY 17 (G-17)        
1 31307U 07016B   25178.55280552 -.00000213  00000+0  00000+0 0  9998
2 31307   2.0741  84.4887 0002509  44.3299 261.0765  1.00270671 66245
DIRECTV 10              
1 31862U 07032A   25178.33514021 -.00000109  00000+0  00000+0 0  9993
2 31862   0.0116 261.9083 0000449 311.1210  80.5124  1.00271175 42038
INTELSAT 11 (IS-11)     
1 32253U 07044B   25178.54698455  .00000056  00000+0  00000+0 0  9998
2 32253   2.6408  83.0986 0003706  76.0204 199.0608  0.99046997 64934
HORIZONS-2              
1 32388U 07063B   25178.55497753 -.00000260  00000+0  00000+0 0  9995
2 32388   1.6865  85.1233 0001969  30.9072 285.8446  1.00269659 64252
DIRECTV 11              
1 32729U 08013A   25177.83654772 -.00000130  00000+0  00000+0 0  9992
2 32729   0.0180 185.5150 0000753 122.9272 168.7140  1.00263873 42035
GALAXY 18 (G-18)        
1 32951U 08024A   25178.58933653  .00000019  00000+0  00000+0 0  9997
2 32951   0.0167  65.1532 0002710  30.8043 269.1249  1.00272186 42293
INTELSAT 25 (IS-25)     
1 33153U 08034A   25178.49202009 -.00000231  00000+0  00000+0 0  9994
2 33153   1.7931  84.7881 0002956  21.5691 315.1160  1.00272751 62134
GALAXY 19 (G-19)        
1 33376U 08045A   25178.55045975 -.00000145  00000+0  00000+0 0  9991
2 33376   0.0176 336.5439 0002568 117.4157 283.0953  1.00271474 61348
FM-5                    
1 35493U 09034A   25178.26705771 -.00000205  00000+0  00000+0 0  9994
2 35493   0.0234  14.8364 0000322 301.9711 328.8055  1.00268101 43085
INTELSAT 14 (IS-14)     
1 36097U 09064A   25178.48941368 -.00000279  00000+0  00000+0 0  9997
2 36097   0.0152  40.3969 0002297  65.7588 300.8763  1.00272302 57045
INTELSAT 15 (IS-15)     
1 36106U 09067A   25178.58658608 -.00000192  00000+0  00000+0 0  9998
2 36106   0.0080  26.9404 0001993  70.6728 114.6343  1.00271870 37674
DIRECTV 12              
1 36131U 09075A   25178.54933031 -.00000109  00000+0  00000+0 0  9995
2 36131   0.0060 110.2183 0000497 340.7036 280.0097  1.00273177 42999
INTELSAT 16 (IS-16)     
1 36397U 10006A   25178.55454312 -.00000250  00000+0  00000+0 0  9993
2 36397   0.0228 306.9348 0001947 167.4874 284.9077  1.00270027 56099
XM-5                    
1 37185U 10053A   25178.40409707 -.00000029  00000+0  00000+0 0  9997
2 37185   0.0405 277.4853 0000393  38.6155 349.9254  1.00271597 53921
INTELSAT 17 (IS-17)     
1 37238U 10065B   25178.10600296 -.00000008  00000+0  00000+0 0  9999
2 37238   0.0322  72.8819 0002674  41.7341 264.9859  1.00271873 49685
INTELSAT 28 (IS-28)     
1 37392U 11016A   25178.48586333 -.00000231  00000+0  00000+0 0  9991
2 37392   0.8890  87.3626 0003760   2.0480 329.6320  1.00270186 49725
INTELSAT 18 (IS-18)     
1 37834U 11056A   25178.58987356  .00000047  00000+0  00000+0 0  9991
2 37834   0.0180  28.2451 0001760  82.3673 197.6838  1.00273652 50251
INTELSAT 22 (IS-22)     
1 38098U 12011A   25178.51257005 -.00000065  00000+0  00000+0 0  9991
2 38098   0.0402  62.2105 0001701  62.5436  47.7290  1.00270478  3637
INTELSAT 19 (IS-19)     
1 38356U 12030A   25178.54766917 -.00000063  00000+0  00000+0 0  9997
2 38356   0.0136  23.0005 0002802  78.6325 177.4185  1.00271392 46895
INTELSAT 20 (IS-20)     
1 38740U 12043A   25177.22690067 -.00000030  00000+0  00000+0 0  9998
2 38740   0.0414  74.9793 0001120 100.2559 249.5355  1.00273876 47174
INTELSAT 21 (IS-21)     
1 38749U 12045A   25178.55819211 -.00000291  00000+0  00000+0 0  9999
2 38749   0.0134  52.8517 0001760  54.6926 311.3041  1.00271651 46966
INTELSAT 23 (IS-23)     
1 38867U 12057A   25178.55914779 -.00000291  00000+0  00000+0 0  9998
2 38867   0.0434 104.5435 0001299 284.8875  34.7538  1.00267787 46390
FM-6                    
1 39360U 13058A   25178.54663701 -.00000023  00000+0  00000+0 0  9997
2 39360   0.0422  73.0846 0001940  92.5194 190.9136  1.00275070 42505
INTELSAT 30 (IS-30)     
1 40271U 14062A   25177.33727297 -.00000155  00000+0  00000+0 0  9999
2 40271   0.0165  37.3898 0001087 344.9461 278.7092  1.00271295  3211
DIRECTV 14              
1 40333U 14078B   25178.21780811 -.00000131  00000+0  00000+0 0  9998
2 40333   0.0239  26.6272 0000449 165.3828  62.7625  1.00268484 38488
DIRECTV 15              
1 40663U 15026A   25178.54933031 -.00000108  00000+0  00000+0 0  9992
2 40663   0.0144  43.5199 0000207 222.5220 104.7344  1.00270341 36904
SKY MEXICO-1            
1 40664U 15026B   25178.55410873 -.00000240  00000+0  00000+0 0  9995
2 40664   0.0107  17.9797 0001834  80.0296 298.5987  1.00272358 36893
INTELSAT 34 (IS-34)     
1 40874U 15039A   25178.05461404 -.00000291  00000+0  00000+0 0  9999
2 40874   0.0242  26.1629 0001275 307.4783 265.9403  1.00268347 36061
INTELSAT 31 (IS-31)     
1 41581U 16035A   25177.97975870 -.00000156  00000+0  00000+0 0  9999
2 41581   0.0158  22.7762 0002097 212.3638 297.8456  1.00268632 33122
INTELSAT 36 (IS-36)     
1 41747U 16053A   25177.96254576 -.00000030  00000+0  00000+0 0  9996
2 41747   0.0135  30.1764 0001830 297.2746   2.8731  1.00270808 32387
INTELSAT 32E (IS-32E)   
1 41945U 17007B   25178.45515037 -.00000275  00000+0  00000+0 0  9994
2 41945   0.0232  69.1282 0000567 262.4135  64.9251  1.00269099 30669
INTELSAT 35E (IS-35E)   
1 42818U 17041A   25178.49149881 -.00000244  00000+0  00000+0 0  9992
2 42818   0.0195 295.1479 0001673 153.5850 329.5584  1.00271076 29259
INTELSAT 37E (IS-37E)   
1 42950U 17059A   25178.48030840 -.00000147  00000+0  00000+0 0  9993
2 42950   0.0177  68.7776 0002457  52.5619 309.3978  1.00271495 28507
AZERSPACE 2 (IS-38)     
1 43632U 18074A   25178.57863709  .00000130  00000+0  00000+0 0  9998
2 43632   0.0236  27.0629 0001251  70.9221  71.3694  1.00270063 24899
HORIZONS-3E             
1 43633U 18074B   25178.51258310 -.00000037  00000+0  00000+0 0  9996
2 43633   0.0627 198.0048 0000966  88.9938 342.3842  1.00270395 24786
AT&T T-16               
1 44333U 19034A   25178.47829299 -.00000121  00000+0  00000+0 0  9990
2 44333   0.0282  74.4283 0000602 267.5473   5.1722  1.00273035 22070
INTELSAT 39 (IS-39)     
1 44476U 19049B   25178.36772035  .00000027  00000+0  00000+0 0  9991
2 44476   0.0176 357.3984 0001251 315.9219 156.7184  1.00272743 21572
GALAXY 30 (G-30)        
1 46114U 20056C   25178.58933653  .00000031  00000+0  00000+0 0  9996
2 46114   0.0174  14.5831 0001845  81.0049 267.4847  1.00272024 17736
GALAXY 33 (G-33)        
1 54026U 22128A   25178.56711568  .00000073  00000+0  00000+0 0  9992
2 54026   0.0172  14.4349 0001645  79.0192 253.6240  1.00270649 10189
GALAXY 34 (G-34)        
1 54027U 22128B   25178.33933604  .00000053  00000+0  00000+0 0  9993
2 54027   0.0137  31.1824 0001198  75.3548 162.2935  1.00269930 10358
GALAXY 31 (G-31)        
1 54243U 22153A   25178.58933653  .00000007  00000+0  00000+0 0  9991
2 54243   0.0164  45.3318 0000243 101.1987 220.5774  1.00269886  3573
GALAXY 32 (G-32)        
1 54244U 22153B   25178.55167608 -.00000180  00000+0  00000+0 0  9991
2 54244   0.0132  36.4946 0001813   4.0642 342.9402  1.00271671  9589
GALAXY 35 (G-35)        
1 54741U 22170A   25178.55124168 -.00000168  00000+0  00000+0 0  9992
2 54741   0.0152  27.2166 0001807  67.4213 286.6113  1.00268972  9331
GALAXY 36 (G-36)        
1 54742U 22170B   25178.55202360 -.00000191  00000+0  00000+0 0  9990
2 54742   0.0206  86.4621 0002490  10.9256 288.2385  1.00271469  9215
GALAXY 37 (G-37)        
1 57493U 23112A   25178.58933653  .00000042  00000+0  00000+0 0  9996
2 57493   0.0168  45.9613 0001741  48.4751 266.6599  1.00271454  6985
